IRIDIUM 63              
1 25286U 98021B   25057.42240587  .00000950  00000+0  31790-3 0  9990
2 25286  86.3998 128.6087 0002025  95.7235 264.4193 14.36397405407945
IRIDIUM 69              
1 25319U 98026A   25057.56543096  .00001326  00000+0  40844-3 0  9996
2 25319  86.4021 142.1616 0003730  61.6537 298.5039 14.40785146407136
IRIDIUM 71              
1 25320U 98026B   25057.44861003  .00001151  00000+0  35233-3 0  9998
2 25320  86.4008 136.9258 0004301  93.8743 266.2948 14.40997090407647
IRIDIUM 73              
1 25344U 98032C   25057.49305829  .00001446  00000+0  35717-3 0  9999
2 25344  86.4363  93.8468 0002524  76.8852 283.2635 14.51458988414503
IRIDIUM 82              
1 25467U 98051A   25057.55456630  .00038847  00000+0  13456-2 0  9990
2 25467  86.3766 163.8244 0096831 355.6472   4.3920 15.25225741407057
